COMMENT,ORIGINATOR,NORAD_CAT_ID,OBJECT_NAME,OBJECT_TYPE,CLASSIFICATION_TYPE,INTLDES,EPOCH,EPOCH_MICROSECONDS,MEAN_MOTION,ECCENTRICITY,INCLINATION,RA_OF_ASC_NODE,ARG_OF_PERICENTER,MEAN_ANOMALY,EPHEMERIS_TYPE,ELEMENT_SET_NO,REV_AT_EPOCH,BSTAR,MEAN_MOTION_DOT,MEAN_MOTION_DDOT,FILE,TLE_LINE0,TLE_LINE1,TLE_LINE2,OBJECT_ID,OBJECT_NUMBER,SEMIMAJOR_AXIS,PERIOD,APOGEE,PERIGEE,DECAYED,date
GENERATED VIA SPACETRACK.ORG API,18 SPCS,48896,SPACEBEE-105,PAYLOAD,U,21059T,2023/2/22 22:14,404416,15.23637313,0.0008148,97.579,188.7245,303.7268,56.3191,0,999,9194,0.0012051,0.00028916,0,3825529,0 SPACEBEE-105,1 48896U 21059T   23053.92707644  .00028916  00000-0  12051-2 0  9991,2 48896  97.5790 188.7245 0008148 303.7268  56.3191 15.23637313 91941,2021-059T,48896,6873.017,94.511,500.483,489.282,0,2023/4/26
GENERATED VIA SPACETRACK.ORG API,18 SPCS,48896,SPACEBEE-105,PAYLOAD,U,21059T,2023/2/23 7:42,688512,15.23663586,0.0008178,97.579,189.1227,302.4329,57.6116,0,999,9200,0.0013842,0.0003327,0,3827943,0 SPACEBEE-105,1 48896U 21059T   23054.32111908  .00033270  00000-0  13842-2 0  9996,2 48896  97.5790 189.1227 0008178 302.4329  57.6116 15.23663586 92003,2021-059T,48896,6872.938,94.509,500.424,489.183,0,2023/4/27
GENERATED VIA SPACETRACK.ORG API,18 SPCS,48896,SPACEBEE-105,PAYLOAD,U,21059T,2023/2/23 7:42,688512,15.23663586,0.0008178,97.579,189.1227,302.4329,57.6116,0,999,9200,0.0013842,0.0003327,0,3828819,0 SPACEBEE-105,1 48896U 21059T   23054.32111908  .00033270  00000-0  13842-2 0  9996,2 48896  97.5790 189.1227 0008178 302.4329  57.6116 15.23663586 92003,2021-059T,48896,6872.938,94.509,500.424,489.183,0,2023/4/28
GENERATED VIA SPACETRACK.ORG API,18 SPCS,48896,SPACEBEE-105,PAYLOAD,U,21059T,2023/2/24 8:55,327808,15.23730143,0.0008071,97.5792,190.1839,298.8005,61.2421,0,999,9216,0.0013049,0.00031413,0,3832328,0 SPACEBEE-105,1 48896U 21059T   23055.37186722  .00031413  00000-0  13049-2 0  9994,2 48896  97.5792 190.1839 0008071 298.8005  61.2421 15.23730143 92168,2021-059T,48896,6872.738,94.505,500.15,489.056,0,2023/4/29
GENERATED VIA SPACETRACK.ORG API,18 SPCS,48896,SPACEBEE-105,PAYLOAD,U,21059T,2023/2/24 8:55,327808,15.23730143,0.0008071,97.5792,190.1839,298.8005,61.2421,0,999,9216,0.0013049,0.00031413,0,3832867,0 SPACEBEE-105,1 48896U 21059T   23055.37186722  .00031413  00000-0  13049-2 0  9994,2 48896  97.5792 190.1839 0008071 298.8005  61.2421 15.23730143 92168,2021-059T,48896,6872.738,94.505,500.15,489.056,0,2023/4/30
GENERATED VIA SPACETRACK.ORG API,18 SPCS,48896,SPACEBEE-105,PAYLOAD,U,21059T,2023/2/24 21:32,265056,15.23754952,0.0008043,97.5792,190.7148,296.7272,63.3141,0,999,9224,0.00096697,0.0002325,0,3836857,0 SPACEBEE-105,1 48896U 21059T   23055.89722529  .00023250  00000-0  96697-3 0  9993,2 48896  97.5792 190.7148 0008043 296.7272  63.3141 15.23754952 92244,2021-059T,48896,6872.664,94.503,500.056,489.001,0,
GENERATED VIA SPACETRACK.ORG API,18 SPCS,48896,SPACEBEE-105,PAYLOAD,U,21059T,2023/2/24 21:32,265056,15.23754952,0.0008043,97.5792,190.7148,296.7272,63.3141,0,999,9224,0.00096697,0.0002325,0,3837605,0 SPACEBEE-105,1 48896U 21059T   23055.89722529  .00023250  00000-0  96697-3 0  9993,2 48896  97.5792 190.7148 0008043 296.7272  63.3141 15.23754952 92244,2021-059T,48896,6872.664,94.503,500.056,489.001,0,
GENERATED VIA SPACETRACK.ORG API,18 SPCS,48896,SPACEBEE-105,PAYLOAD,U,21059T,2023/2/25 21:10,126112,15.23809888,0.00081,97.5789,191.7102,292.9778,67.0604,0,999,9239,0.001222,0.00029475,0,3839003,0 SPACEBEE-105,1 48896U 21059T   23056.88224683  .00029475  00000-0  12220-2 0  9995,2 48896  97.5789 191.7102 0008100 292.9778  67.0604 15.23809888 92394,2021-059T,48896,6872.498,94.5,499.93,488.797,0,
GENERATED VIA SPACETRACK.ORG API,18 SPCS,48896,SPACEBEE-105,PAYLOAD,U,21059T,2023/2/25 22:44,735040,15.23813578,0.0008119,97.5789,191.7766,292.7511,67.2868,0,999,9240,0.001243,0.00029988,0,3839246,0 SPACEBEE-105,1 48896U 21059T   23056.94791360  .00029988  00000-0  12430-2 0  9995,2 48896  97.5789 191.7766 0008119 292.7511  67.2868 15.23813578 92400,2021-059T,48896,6872.487,94.5,499.932,488.773,0,
GENERATED VIA SPACETRACK.ORG API,18 SPCS,48896,SPACEBEE-105,PAYLOAD,U,21059T,2023/2/26 8:12,81888,15.23839144,0.0008158,97.5788,192.1749,291.4985,68.5382,0,999,9246,0.0013609,0.00032877,0,3841853,0 SPACEBEE-105,1 48896U 21059T   23057.34191067  .00032877  00000-0  13609-2 0  9998,2 48896  97.5788 192.1749 0008158 291.4985  68.5382 15.23839144 92467,2021-059T,48896,6872.41,94.498,499.882,488.669,0,
GENERATED VIA SPACETRACK.ORG API,18 SPCS,48896,SPACEBEE-105,PAYLOAD,U,21059T,2023/2/27 7:50,949888,15.23911552,0.000823,97.5787,193.1703,288.285,71.7491,0,999,9261,0.0017981,0.0004362,0,3845185,0 SPACEBEE-105,1 48896U 21059T   23058.32687442  .00043620  00000-0  17981-2 0  9999,2 48896  97.5787 193.1703 0008230 288.2850  71.7491 15.23911552 92611,2021-059T,48896,6872.193,94.494,499.714,488.402,0,
GENERATED VIA SPACETRACK.ORG API,18 SPCS,48896,SPACEBEE-105,PAYLOAD,U,21059T,2023/2/27 7:50,949888,15.23911552,0.000823,97.5787,193.1703,288.285,71.7491,0,999,9261,0.0017981,0.0004362,0,3846396,0 SPACEBEE-105,1 48896U 21059T   23058.32687442  .00043620  00000-0  17981-2 0  9999,2 48896  97.5787 193.1703 0008230 288.2850  71.7491 15.23911552 92611,2021-059T,48896,6872.193,94.494,499.714,488.402,0,
GENERATED VIA SPACETRACK.ORG API,18 SPCS,48896,SPACEBEE-105,PAYLOAD,U,21059T,2023/2/28 9:03,592224,15.24014126,0.000808,97.5788,194.2318,284.0637,75.9702,0,999,9277,0.0018234,0.00044373,0,3847406,0 SPACEBEE-105,1 48896U 21059T   23059.37743741  .00044373  00000-0  18234-2 0  9998,2 48896  97.5788 194.2318 0008080 284.0637  75.9702 15.24014126 92776,2021-059T,48896,6871.884,94.487,499.302,488.197,0,
GENERATED VIA SPACETRACK.ORG API,18 SPCS,48896,SPACEBEE-105,PAYLOAD,U,21059T,2023/2/28 9:03,592224,15.24014126,0.000808,97.5788,194.2318,284.0637,75.9702,0,999,9277,0.0018234,0.00044373,0,3847542,0 SPACEBEE-105,1 48896U 21059T   23059.37743741  .00044373  00000-0  18234-2 0  9998,2 48896  97.5788 194.2318 0008080 284.0637  75.9702 15.24014126 92776,2021-059T,48896,6871.884,94.487,499.302,488.197,0,
GENERATED VIA SPACETRACK.ORG API,18 SPCS,48896,SPACEBEE-105,PAYLOAD,U,21059T,2023/2/28 21:39,979328,15.24045031,0.0008064,97.579,194.7629,282.1734,77.8599,0,999,9285,0.0011931,0.00028975,0,3847656,0 SPACEBEE-105,1 48896U 21059T   23059.90269652  .00028975  00000-0  11931-2 0  9998,2 48896  97.5790 194.7629 0008064 282.1734  77.8599 15.24045031 92851,2021-059T,48896,6871.792,94.485,499.198,488.115,0,
GENERATED VIA SPACETRACK.ORG API,18 SPCS,48896,SPACEBEE-105,PAYLOAD,U,21059T,2023/3/1 2:23,66368,15.2406005,0.0008093,97.5791,194.962,281.5133,78.5195,0,999,9288,0.0012968,0.00031525,0,3848052,0 SPACEBEE-105,1 48896U 21059T   23060.09966512  .00031525  00000-0  12968-2 0  9995,2 48896  97.5791 194.9620 0008093 281.5133  78.5195 15.24060050 92884,2021-059T,48896,6871.746,94.484,499.173,488.05,0,
GENERATED VIA SPACETRACK.ORG API,18 SPCS,48896,SPACEBEE-105,PAYLOAD,U,21059T,2023/3/1 21:18,19168,15.24113322,0.0008054,97.5789,195.7586,278.8309,81.2015,0,999,9300,0.001196,0.00029105,0,3848834,0 SPACEBEE-105,1 48896U 21059T   23060.88752337  .00029105  00000-0  11960-2 0  9992,2 48896  97.5789 195.7586 0008054 278.8309  81.2015 15.24113322 93000,2021-059T,48896,6871.586,94.481,498.986,487.917,0,
GENERATED VIA SPACETRACK.ORG API,18 SPCS,48896,SPACEBEE-105,PAYLOAD,U,21059T,2023/3/2 3:36,815200,15.2413125,0.0008085,97.5789,196.0241,277.8986,82.1333,0,999,9304,0.0012997,0.00031663,0,3848957,0 SPACEBEE-105,1 48896U 21059T   23061.15013675  .00031663  00000-0  12997-2 0  9991,2 48896  97.5789 196.0241 0008085 277.8986  82.1333 15.24131250 93043,2021-059T,48896,6871.532,94.48,498.953,487.842,0,
GENERATED VIA SPACETRACK.ORG API,18 SPCS,48896,SPACEBEE-105,PAYLOAD,U,21059T,2023/3/2 19:21,221824,15.2417515,0.0008105,97.5788,196.6879,275.8055,84.2257,0,999,9314,0.0013074,0.00031894,0,3849487,0 SPACEBEE-105,1 48896U 21059T   23061.80665766  .00031894  00000-0  13074-2 0  9990,2 48896  97.5788 196.6879 0008105 275.8055  84.2257 15.24175150 93149,2021-059T,48896,6871.4,94.477,498.835,487.696,0,
GENERATED VIA SPACETRACK.ORG API,18 SPCS,48896,SPACEBEE-105,PAYLOAD,U,21059T,2023/3/3 7:57,503552,15.24227046,0.0008159,97.5788,197.219,274.2061,85.8243,0,999,9322,0.0019046,0.00046661,0,3849694,0 SPACEBEE-105,1 48896U 21059T   23062.33185768  .00046661  00000-0  19046-2 0  9991,2 48896  97.5788 197.2190 0008159 274.2061  85.8243 15.24227046 93224,2021-059T,48896,6871.244,94.474,498.716,487.503,0,
GENERATED VIA SPACETRACK.ORG API,18 SPCS,48896,SPACEBEE-105,PAYLOAD,U,21059T,2023/3/3 7:57,503552,15.24227046,0.0008159,97.5788,197.219,274.2061,85.8243,0,999,9322,0.0019046,0.00046661,0,3850163,0 SPACEBEE-105,1 48896U 21059T   23062.33185768  .00046661  00000-0  19046-2 0  9991,2 48896  97.5788 197.2190 0008159 274.2061  85.8243 15.24227046 93224,2021-059T,48896,6871.244,94.474,498.716,487.503,0,
GENERATED VIA SPACETRACK.ORG API,18 SPCS,48896,SPACEBEE-105,PAYLOAD,U,21059T,2023/3/3 20:34,404608,15.242724,0.0008198,97.5791,197.7504,272.9652,87.0647,0,999,9330,0.0017848,0.00043764,0,3850400,0 SPACEBEE-105,1 48896U 21059T   23062.85704172  .00043764  00000-0  17848-2 0  9993,2 48896  97.5791 197.7504 0008198 272.9652  87.0647 15.24272400 93301,2021-059T,48896,6871.108,94.471,498.606,487.34,0,
GENERATED VIA SPACETRACK.ORG API,18 SPCS,48896,SPACEBEE-105,PAYLOAD,U,21059T,2023/3/4 7:35,99360,15.24318981,0.0008185,97.579,198.2151,271.2535,88.7764,0,999,9337,0.0020113,0.00049433,0,3851072,0 SPACEBEE-105,1 48896U 21059T   23063.31656365  .00049433  00000-0  20113-2 0  9993,2 48896  97.5790 198.2151 0008185 271.2535  88.7764 15.24318981 93372,2021-059T,48896,6870.968,94.468,498.457,487.209,0,
